[{"OBJECT_NAME":"TYVAK-182A","OBJECT_ID":"2021-034D","EPOCH":"2026-03-09T17:04:17.866560","MEAN_MOTION":15.0515042,"ECCENTRICITY":0.00048625,"INCLINATION":97.5843,"RA_OF_ASC_NODE":129.3711,"ARG_OF_PERICENTER":316.565,"MEAN_ANOMALY":43.5193,"EPHEMERIS_TYPE":0,"CLASSIFICATION_TYPE":"U","NORAD_CAT_ID":48271,"ELEMENT_SET_NO":999,"REV_AT_EPOCH":26486,"BSTAR":0.00050672592,"MEAN_MOTION_DOT":7.163e-5,"MEAN_MOTION_DDOT":0},{"OBJECT_NAME":"STARLINK-5673","OBJECT_ID":"2023-015P","EPOCH":"2026-03-08T02:06:20.737728","MEAN_MOTION":15.02536752,"ECCENTRICITY":0.00012719,"INCLINATION":43.0046,"RA_OF_ASC_NODE":334.642,"ARG_OF_PERICENTER":261.1698,"MEAN_ANOMALY":98.9,"EPHEMERIS_TYPE":0,"CLASSIFICATION_TYPE":"U","NORAD_CAT_ID":55462,"ELEMENT_SET_NO":999,"REV_AT_EPOCH":17051,"BSTAR":4.8004816e-5,"MEAN_MOTION_DOT":4.45e-6,"MEAN_MOTION_DDOT":0}]
