TYVAK-182A              
1 48271U 21034D   26068.71131789  .00007163  00000+0  50673-3 0  9991
2 48271  97.5843 129.3711 0004862 316.5650  43.5193 15.05150420264864
STARLINK-5673           
1 55462U 23015P   26067.08774002  .00000445  00000+0  48005-4 0  9995
2 55462  43.0046 334.6420 0001271 261.1698  98.9000 15.02536752170513
